{
    "links": {
        "self": "http://www.neowsapp.com/rest/v1/neo/54087579?api_key=iIulBulltgU6a56xZRHN4H3l9WmuAYTsLGpBGhQ2"
    },
    "id": "54087579",
    "neo_reference_id": "54087579",
    "name": "(2020 VR1)",
    "designation": "2020 VR1",
    "nasa_jpl_url": "http://ssd.jpl.nasa.gov/sbdb.cgi?sstr=54087579",
    "absolute_magnitude_h": 28.906,
    "estimated_diameter": {
        "kilometers": {
            "estimated_diameter_min": 0.0043990103,
            "estimated_diameter_max": 0.009836486
        },
        "meters": {
            "estimated_diameter_min": 4.3990102773,
            "estimated_diameter_max": 9.8364860137
        },
        "miles": {
            "estimated_diameter_min": 0.0027334174,
            "estimated_diameter_max": 0.0061121072
        },
        "feet": {
            "estimated_diameter_min": 14.4324488781,
            "estimated_diameter_max": 32.2719367732
        }
    },
    "is_potentially_hazardous_asteroid": false,
    "close_approach_data": [
        {
            "close_approach_date": "2015-02-18",
            "close_approach_date_full": "2015-Feb-18 03:40",
            "epoch_date_close_approach": 1424230800000,
            "relative_velocity": {
                "kilometers_per_second": "19.1335330699",
                "kilometers_per_hour": "68880.7190514622",
                "miles_per_hour": "42799.8001239488"
            },
            "miss_distance": {
                "astronomical": "0.3722053174",
                "lunar": "144.7878684686",
                "kilometers": "55681122.685713938",
                "miles": "34598645.2764028244"
            },
            "orbiting_body": "Earth"
        },
        {
            "close_approach_date": "2020-11-09",
            "close_approach_date_full": "2020-Nov-09 17:51",
            "epoch_date_close_approach": 1604944260000,
            "relative_velocity": {
                "kilometers_per_second": "12.5342156615",
                "kilometers_per_hour": "45123.1763814515",
                "miles_per_hour": "28037.7870132413"
            },
            "miss_distance": {
                "astronomical": "0.0025401958",
                "lunar": "0.9881361662",
                "kilometers": "380007.881062946",
                "miles": "236125.9479868148"
            },
            "orbiting_body": "Earth"
        },
        {
            "close_approach_date": "2020-11-09",
            "close_approach_date_full": "2020-Nov-09 22:55",
            "epoch_date_close_approach": 1604962500000,
            "relative_velocity": {
                "kilometers_per_second": "12.0305634849",
                "kilometers_per_hour": "43310.0285457376",
                "miles_per_hour": "26911.1674594334"
            },
            "miss_distance": {
                "astronomical": "0.0035310634",
                "lunar": "1.3735836626",
                "kilometers": "528239.563474958",
                "miles": "328232.8443841004"
            },
            "orbiting_body": "Moon"
        },
        {
            "close_approach_date": "2023-10-17",
            "close_approach_date_full": "2023-Oct-17 10:38",
            "epoch_date_close_approach": 1697539080000,
            "relative_velocity": {
                "kilometers_per_second": "20.4637785414",
                "kilometers_per_hour": "73669.6027489302",
                "miles_per_hour": "45775.4262191894"
            },
            "miss_distance": {
                "astronomical": "0.3039319263",
                "lunar": "118.2295193307",
                "kilometers": "45467568.799476981",
                "miles": "28252237.1783490978"
            },
            "orbiting_body": "Earth"
        }
    ],
    "orbital_data": {
        "orbit_id": "1",
        "orbit_determination_date": "2020-11-10 21:42:03",
        "first_observation_date": "2020-11-09",
        "last_observation_date": "2020-11-09",
        "data_arc_in_days": null,
        "observations_used": 33,
        "orbit_uncertainty": "7",
        "minimum_orbit_intersection": ".00299893",
        "jupiter_tisserand_invariant": "3.550",
        "epoch_osculation": "2459000.5",
        "eccentricity": ".5557377542660987",
        "semi_major_axis": "2.056404711827212",
        "inclination": "12.75394364483842",
        "ascending_node_longitude": "47.04288188284115",
        "orbital_period": "1077.113111001182",
        "perihelion_distance": ".913582975414133",
        "perihelion_argument": "39.38008999019822",
        "aphelion_distance": "3.19922644824029",
        "perihelion_time": "2459192.484389082064",
        "mean_anomaly": "295.8336841659082",
        "mean_motion": ".3342267365637932",
        "equinox": "J2000",
        "orbit_class": {
            "orbit_class_type": "APO",
            "orbit_class_description": "Near-Earth asteroid orbits which cross the Earth’s orbit similar to that of 1862 Apollo",
            "orbit_class_range": "a (semi-major axis) > 1.0 AU; q (perihelion) < 1.017 AU"
        }
    },
    "is_sentry_object": false
}